NORAD_CAT_ID,OBJECT_NAME,OBJECT_TYPE,EPOCH,MEAN_MOTION,ECCENTRICITY,INCLINATION,RA_OF_ASC_NODE,ARG_OF_PERICENTER,MEAN_ANOMALY,BSTAR,MEAN_MOTION_DOT,MEAN_MOTION_DDOT,TLE_LINE0,TLE_LINE1,TLE_LINE2,SEMIMAJOR_AXIS,PERIOD,APOGEE,PERIGEE,DECAYED
55297.0,STARLINK-5284,PAYLOAD,2024-06-22 08:50:03,14.98329094,0.0003512,69.999,161.0478,268.0618,92.0139,-1.2883e-06,-1.08e-06,0.0,0 STARLINK-5284,1 55297U 23010AE  24174.36809885 -.00000108  00000-0 -12883-5 0  9997,2 55297  69.9990 161.0478 0003512 268.0618  92.0139 14.98329094 79606,6950.196,96.107,574.502,569.62,0.0
55297.0,STARLINK-5284,PAYLOAD,2024-06-23 04:03:40,14.98329134,0.0003521,69.9989,159.0276,268.0828,91.9928,9.4075e-06,1.9e-07,0.0,0 STARLINK-5284,1 55297U 23010AE  24175.16921853  .00000019  00000-0  94075-5 0  9998,2 55297  69.9989 159.0276 0003521 268.0828  91.9928 14.98329134 79418,6950.196,96.107,574.508,569.613,0.0
55297.0,STARLINK-5284,PAYLOAD,2024-06-23 08:52:04,14.98330414,0.0003502,69.999,158.5228,268.9798,91.096,2.9407e-05,2.58e-06,0.0,0 STARLINK-5284,1 55297U 23010AE  24175.36949724  .00000258  00000-0  29407-4 0  9998,2 55297  69.9990 158.5228 0003502 268.9798  91.0960 14.98330414 79752,6950.192,96.107,574.491,569.623,0.0
55297.0,STARLINK-5284,PAYLOAD,2024-06-24 04:05:42,14.98316211,0.0003324,69.9995,156.5028,269.3656,90.7122,-9.732e-05,-1.254e-05,0.0,0 STARLINK-5284,1 55297U 23010AE  24176.17063348 -.00001254  00000-0 -97320-4 0  9995,2 55297  69.9995 156.5028 0003324 269.3656  90.7122 14.98316211 79567,6950.236,96.108,574.411,569.79,0.0
55297.0,STARLINK-5284,PAYLOAD,2024-06-24 08:54:07,14.98316529,0.0003312,69.9996,155.9979,269.5168,90.5611,-8.7787e-05,-1.14e-05,0.0,0 STARLINK-5284,1 55297U 23010AE  24176.37091464 -.00001140  00000-0 -87787-4 0  9997,2 55297  69.9996 155.9979 0003312 269.5168  90.5611 14.98316529 79904,6950.235,96.108,574.401,569.798,0.0
55297.0,STARLINK-5284,PAYLOAD,2024-06-25 04:07:43,14.98324338,0.0003351,69.9995,153.9782,269.9278,90.1497,-3.0367e-05,-4.55e-06,0.0,0 STARLINK-5284,1 55297U 23010AE  24177.17203216 -.00000455  00000-0 -30367-4 0  9996,2 55297  69.9995 153.9782 0003351 269.9278  90.1497 14.98324338 79716,6950.21,96.107,574.404,569.746,0.0
55297.0,STARLINK-5284,PAYLOAD,2024-06-25 07:19:59,14.98324293,0.0003346,69.9995,153.6416,269.8253,90.2522,-2.8002e-05,-4.27e-06,0.0,0 STARLINK-5284,1 55297U 23010AE  24177.30555272 -.00000427  00000-0 -28002-4 0  9995,2 55297  69.9995 153.6416 0003346 269.8253  90.2522 14.98324293 80041,6950.211,96.107,574.401,569.75,0.0
55297.0,STARLINK-5284,PAYLOAD,2024-06-26 04:09:44,14.98329176,0.0003602,69.9988,151.4535,265.6521,94.4226,0.00015546,1.762e-05,0.0,0 STARLINK-5284,1 55297U 23010AE  24178.17342600  .00001762  00000-0  15546-3 0  9999,2 55297  69.9988 151.4535 0003602 265.6521  94.4226 14.98329176 79868,6950.195,96.107,574.564,569.557,0.0
55297.0,STARLINK-5284,PAYLOAD,2024-06-26 07:21:59,14.98332415,0.0003546,69.9989,151.1166,267.3889,92.6864,0.0001894,2.168e-05,0.0,0 STARLINK-5284,1 55297U 23010AE  24178.30694310  .00002168  00000-0  18940-3 0  9994,2 55297  69.9989 151.1166 0003546 267.3889  92.6864 14.98332415 80195,6950.185,96.107,574.515,569.586,0.0
55297.0,STARLINK-5284,PAYLOAD,2024-06-27 04:11:44,14.98337623,0.0003486,69.9989,148.9283,266.0727,94.0034,0.00011036,1.224e-05,0.0,0 STARLINK-5284,1 55297U 23010AE  24179.17481906  .00001224  00000-0  11036-3 0  9996,2 55297  69.9989 148.9283 0003486 266.0727  94.0034 14.98337623 80011,6950.169,96.107,574.457,569.611,0.0
55297.0,STARLINK-5284,PAYLOAD,2024-06-27 15:24:40,14.98338676,0.0003519,69.9989,147.752,271.8083,88.2673,4.7504e-05,4.74e-06,0.0,0 STARLINK-5284,1 55297U 23010AE  24179.64213708  .00000474  00000-0  47504-4 0  9997,2 55297  69.9989 147.7520 0003519 271.8083  88.2673 14.98338676 80392,6950.166,96.106,574.477,569.585,0.0
55297.0,STARLINK-5284,PAYLOAD,2024-06-28 04:13:45,14.98334355,0.0003291,69.9994,146.405,267.384,92.6942,-7.9338e-05,-1.04e-05,0.0,0 STARLINK-5284,1 55297U 23010AE  24180.17622133 -.00001040  00000-0 -79338-4 0  9995,2 55297  69.9994 146.4050 0003291 267.3840  92.6942 14.98334355 80163,6950.179,96.107,574.332,569.757,0.0
55297.0,STARLINK-5284,PAYLOAD,2024-06-28 07:26:01,14.98328639,0.0003243,69.9996,146.0684,264.9589,95.12,8.1553e-05,8.8e-06,0.0,0 STARLINK-5284,1 55297U 23010AE  24180.30974027  .00000880  00000-0  81553-4 0  9993,2 55297  69.9996 146.0684 0003243 264.9589  95.1200 14.98328639 80493,6950.197,96.107,574.316,569.808,0.0
55297.0,STARLINK-5284,PAYLOAD,2024-06-28 21:51:13,14.98335968,0.0003209,69.9994,144.5507,264.6626,95.4167,-3.6304e-05,-5.26e-06,0.0,0 STARLINK-5284,1 55297U 23010AE  24180.91057489 -.00000526  00000-0 -36304-4 0  9997,2 55297  69.9994 144.5507 0003209 264.6626  95.4167 14.98335968 80587,6950.174,96.107,574.27,569.809,0.0
55297.0,STARLINK-5284,PAYLOAD,2024-06-29 04:15:45,14.98340216,0.0003317,69.9992,143.8791,269.6855,90.3924,-3.5919e-05,-5.22e-06,0.0,0 STARLINK-5284,1 55297U 23010AE  24181.17761137 -.00000522  00000-0 -35919-4 0  9995,2 55297  69.9992 143.8791 0003317 269.6855  90.3924 14.98340216 80319,6950.161,96.106,574.332,569.721,0.0
55297.0,STARLINK-5284,PAYLOAD,2024-06-29 07:28:01,14.98341659,0.0003299,69.9993,143.5424,269.6587,90.4194,-1.5929e-05,-2.83e-06,0.0,0 STARLINK-5284,1 55297U 23010AE  24181.31112903 -.00000283  00000-0 -15929-4 0  9995,2 55297  69.9993 143.5424 0003299 269.6587  90.4194 14.98341659 80649,6950.157,96.106,574.315,569.729,0.0
55297.0,STARLINK-5284,PAYLOAD,2024-06-29 21:53:14,14.98331627,0.0003294,69.9994,142.0277,269.3761,90.7021,4.4857e-05,4.42e-06,0.0,0 STARLINK-5284,1 55297U 23010AE  24181.91197053  .00000442  00000-0  44857-4 0  9997,2 55297  69.9994 142.0277 0003294 269.3761  90.7021 14.98331627 80732,6950.188,96.107,574.342,569.763,0.0
55297.0,STARLINK-5284,PAYLOAD,2024-06-30 04:17:46,14.98336633,0.0003179,69.9994,141.355,267.9648,92.1147,6.9801e-05,7.4e-06,0.0,0 STARLINK-5284,1 55297U 23010AE  24182.17900603  .00000740  00000-0  69801-4 0  9996,2 55297  69.9994 141.3550 0003179 267.9648  92.1147 14.98336633 80465,6950.172,96.107,574.247,569.828,0.0
55297.0,STARLINK-5284,PAYLOAD,2024-06-30 07:30:01,14.98340389,0.0003121,69.9995,141.018,267.8472,92.233,0.00010985,1.218e-05,0.0,0 STARLINK-5284,1 55297U 23010AE  24182.31252176  .00001218  00000-0  10985-3 0  9996,2 55297  69.9995 141.0180 0003121 267.8472  92.2330 14.98340389 80797,6950.161,96.106,574.195,569.857,0.0
55297.0,STARLINK-5284,PAYLOAD,2024-06-30 21:55:15,14.98325604,0.0002882,70.0003,139.5034,267.9758,92.1071,-5.4155e-05,-7.39e-06,0.0,0 STARLINK-5284,1 55297U 23010AE  24182.91337484 -.00000739  00000-0 -54155-4 0  9995,2 55297  70.0003 139.5034 0002882 267.9758  92.1071 14.98325604 80885,6950.206,96.107,574.075,570.068,0.0
55297.0,STARLINK-5284,PAYLOAD,2024-07-01 04:19:47,14.98326293,0.0002852,70.0001,138.8304,268.113,91.9702,-6.8289e-05,-9.08e-06,0.0,0 STARLINK-5284,1 55297U 23010AE  24183.18041529 -.00000908  00000-0 -68289-4 0  9998,2 55297  70.0001 138.8304 0002852 268.1130  91.9702 14.98326293 80613,6950.204,96.107,574.052,570.087,0.0
55297.0,STARLINK-5284,PAYLOAD,2024-07-01 13:56:36,14.98329026,0.0002792,70.0004,137.8206,267.82,92.2639,-0.00010024,-1.289e-05,0.0,0 STARLINK-5284,1 55297U 23010AE  24183.58097457 -.00001289  00000-0 -10024-3 0  9999,2 55297  70.0004 137.8206 0002792 267.8200  92.2639 14.98329026 80983,6950.196,96.107,574.001,570.12,0.0
55297.0,STARLINK-5284,PAYLOAD,2024-07-01 21:57:16,14.98332341,0.0002657,70.0004,136.9788,267.3997,92.6858,-5.682e-05,-7.71e-06,0.0,0 STARLINK-5284,1 55297U 23010AE  24183.91477165 -.00000771  00000-0 -56820-4 0  9994,2 55297  70.0004 136.9788 0002657 267.3997  92.6858 14.98332341 81034,6950.186,96.107,573.897,570.204,0.0
55297.0,STARLINK-5284,PAYLOAD,2024-07-02 04:21:48,14.98330742,0.0002887,69.9997,136.3054,267.3952,92.6877,-6.4181e-05,-8.59e-06,0.0,0 STARLINK-5284,1 55297U 23010AE  24184.18181250 -.00000859  00000-0 -64181-4 0  9997,2 55297  69.9997 136.3054 0002887 267.3952  92.6877 14.98330742 80761,6950.191,96.107,574.062,570.049,0.0
55297.0,STARLINK-5284,PAYLOAD,2024-07-02 13:58:37,14.9832839,0.0002872,69.9997,135.2955,268.36,91.723,-0.00010493,-1.345e-05,0.0,0 STARLINK-5284,1 55297U 23010AE  24184.58237515 -.00001345  00000-0 -10493-3 0  9994,2 55297  69.9997 135.2955 0002872 268.3600  91.7230 14.98328390 81135,6950.198,96.107,574.059,570.067,0.0
55297.0,STARLINK-5284,PAYLOAD,2024-07-02 21:59:17,14.98324136,0.0002886,69.9996,134.4538,268.5181,91.5648,1.1307e-05,4.2e-07,0.0,0 STARLINK-5284,1 55297U 23010AE  24184.91617603  .00000042  00000-0  11307-4 0  9998,2 55297  69.9996 134.4538 0002886 268.5181  91.5648 14.98324136 81183,6950.211,96.107,574.082,570.07,0.0
55297.0,STARLINK-5284,PAYLOAD,2024-07-03 04:23:49,14.98323837,0.000291,69.9997,133.7805,268.4489,91.6336,6.247e-06,-1.8e-07,0.0,0 STARLINK-5284,1 55297U 23010AE  24185.18321732 -.00000018  00000-0  62470-5 0  9995,2 55297  69.9997 133.7805 0002910 268.4489  91.6336 14.98323837 80913,6950.212,96.107,574.099,570.054,0.0
55297.0,STARLINK-5284,PAYLOAD,2024-07-03 22:01:18,14.98327643,0.0002977,69.9995,131.9288,269.026,91.0558,6.1124e-05,6.36e-06,0.0,0 STARLINK-5284,1 55297U 23010AE  24185.91757452  .00000636  00000-0  61124-4 0  9997,2 55297  69.9995 131.9288 0002977 269.0260  91.0558 14.98327643 81339,6950.2,96.107,574.134,569.996,0.0
55297.0,STARLINK-5284,PAYLOAD,2024-07-04 04:25:50,14.98331615,0.0003021,69.9996,131.2552,268.4791,91.6022,4.5781e-05,4.53e-06,0.0,0 STARLINK-5284,1 55297U 23010AE  24186.18461241  .00000453  00000-0  45781-4 0  9993,2 55297  69.9996 131.2552 0003021 268.4791  91.6022 14.98331615 81066,6950.188,96.107,574.153,569.953,0.0
55297.0,STARLINK-5284,PAYLOAD,2024-07-04 14:02:38,14.9833533,0.0003098,69.9996,130.2447,269.6863,90.3941,-5.4148e-05,-7.39e-06,0.0,0 STARLINK-5284,1 55297U 23010AE  24186.58517164 -.00000739  00000-0 -54148-4 0  9999,2 55297  69.9996 130.2447 0003098 269.6863  90.3941 14.98335330 81430,6950.176,96.107,574.195,569.888,0.0
